NORAD_CAT_ID,OBJECT_NAME,OBJECT_TYPE,EPOCH,MEAN_MOTION,ECCENTRICITY,INCLINATION,RA_OF_ASC_NODE,ARG_OF_PERICENTER,MEAN_ANOMALY,BSTAR,MEAN_MOTION_DOT,MEAN_MOTION_DDOT,TLE_LINE0,TLE_LINE1,TLE_LINE2,SEMIMAJOR_AXIS,PERIOD,APOGEE,PERIGEE,DECAYED
49437.0,STARLINK-3130,PAYLOAD,2022-11-27 21:01:38,15.08844966,0.000297,53.2159,186.3253,39.1909,320.9297,1.4364000000000009e-05,-6e-07,0.0,0 STARLINK-3130,1 49437U 21104AF  22331.87613956 -.00000060  00000-0  14364-4 0  9990,2 49437  53.2159 186.3253 0002970  39.1909 320.9297 15.08844966 58085,6917.865,95.437,541.785,537.6759999999998,0.0
49437.0,STARLINK-3130,PAYLOAD,2022-11-28 14:30:52,15.08841133,0.0003006,53.2159,183.0543,39.6246,320.4966,7.8873e-06,-1.63e-06,0.0,0 STARLINK-3130,1 49437U 21104AF  22332.60477869 -.00000163  00000-0  78873-5 0  9993,2 49437  53.2159 183.0543 0003006  39.6246 320.4966 15.08841133 59263,6917.877,95.437,541.821,537.6619999999998,0.0
49437.0,STARLINK-3130,PAYLOAD,2022-11-29 00:03:12,15.08831164,0.0003028,53.2157,181.2702,38.2538,321.8668,-5.7206e-05,-1.199e-05,0.0,0 STARLINK-3130,1 49437U 21104AF  22333.00222720 -.00001199  00000-0 -57206-4 0  9999,2 49437  53.2157 181.2702 0003028  38.2538 321.8668 15.08831164 59325,6917.906999999997,95.438,541.867,537.678,0.0
49437.0,STARLINK-3130,PAYLOAD,2022-11-29 19:07:50,15.08833989,0.0003048,53.2158,177.7016,38.5087,321.6122,4.9811e-05,5.04e-06,0.0,0 STARLINK-3130,1 49437U 21104AF  22333.79710656  .00000504  00000-0  49811-4 0  9995,2 49437  53.2158 177.7016 0003048  38.5087 321.6122 15.08833989 59441,6917.899,95.438,541.872,537.655,0.0
49437.0,STARLINK-3130,PAYLOAD,2022-11-30 14:12:27,15.08834923,0.00029,53.2165,174.1323,44.545,315.5775,0.00010501,1.383e-05,0.0,0 STARLINK-3130,1 49437U 21104AF  22334.59198584  .00001383  00000-0  10501-3 0  9993,2 49437  53.2165 174.1323 0002900  44.5450 315.5775 15.08834923 58497,6917.896,95.438,541.7669999999998,537.755,0.0
49437.0,STARLINK-3130,PAYLOAD,2022-11-30 20:34:00,15.08837316,0.0003053,53.2164,172.9436,41.488,318.6344,0.00012636,1.723e-05,0.0,0 STARLINK-3130,1 49437U 21104AF  22334.85694510  .00001723  00000-0  12636-3 0  9991,2 49437  53.2164 172.9436 0003053  41.4880 318.6344 15.08837316 58530,6917.889,95.438,541.866,537.6419999999998,0.0
49437.0,STARLINK-3130,PAYLOAD,2022-12-01 09:17:05,15.08841466,0.0003097,53.2159,170.5647,42.2365,317.8865,0.00013634,1.882e-05,0.0,0 STARLINK-3130,1 49437U 21104AF  22335.38686364  .00001882  00000-0  13634-3 0  9993,2 49437  53.2159 170.5647 0003097  42.2365 317.8865 15.08841466 58616,6917.876,95.437,541.883,537.5980000000002,0.0
49437.0,STARLINK-3130,PAYLOAD,2022-12-01 15:38:38,15.08833838,0.0003071,53.2156,169.3743,41.0477,319.0746,1.7512e-05,-1e-07,0.0,0 STARLINK-3130,1 49437U 21104AF  22335.65183217 -.00000010  00000-0  17512-4 0  9995,2 49437  53.2156 169.3743 0003071  41.0477 319.0746 15.08833838 59728,6917.899,95.438,541.889,537.64,0.0
49437.0,STARLINK-3130,PAYLOAD,2022-12-02 10:43:16,15.08836355,0.0003106,53.2154,165.8062,43.1162,317.0073,-1.0787e-05,-4.6e-06,0.0,0 STARLINK-3130,1 49437U 21104AF  22336.44671423 -.00000460  00000-0 -10787-4 0  9991,2 49437  53.2154 165.8062 0003106  43.1162 317.0073 15.08836355 58776,6917.892,95.438,541.905,537.6080000000002,0.0
49437.0,STARLINK-3130,PAYLOAD,2022-12-02 15:29:25,15.08837506,0.0003104,53.2156,164.9142,43.6986,316.4252,-1.9375e-06,-3.2e-06,0.0,0 STARLINK-3130,1 49437U 21104AF  22336.64543354 -.00000320  00000-0 -19375-5 0  9992,2 49437  53.2156 164.9142 0003104  43.6986 316.4252 15.08837506 58809,6917.888000000001,95.438,541.9,537.606,0.0
49437.0,STARLINK-3130,PAYLOAD,2022-12-03 12:09:26,15.08837213,0.0003111,53.2156,161.0491,45.0142,315.1102,3.5081e-05,2.7000000000000004e-06,0.0,0 STARLINK-3130,1 49437U 21104AF  22337.50655331  .00000270  00000-0  35081-4 0  9990,2 49437  53.2156 161.0491 0003111  45.0142 315.1102 15.08837213 60002,6917.889,95.438,541.906,537.602,0.0
49437.0,STARLINK-3130,PAYLOAD,2022-12-03 20:06:21,15.08837475,0.0003187,53.2159,159.5624,46.0666,314.0589,8.5064e-05,1.065e-05,0.0,0 STARLINK-3130,1 49437U 21104AF  22337.83775248  .00001065  00000-0  85064-4 0  9995,2 49437  53.2159 159.5624 0003187  46.0666 314.0589 15.08837475 58981,6917.888000000001,95.438,541.9580000000002,537.548,0.0
49437.0,STARLINK-3130,PAYLOAD,2022-12-04 12:00:13,15.08840915,0.0003215,53.2157,156.5887,47.4777,312.6486,9.7777e-05,1.268e-05,0.0,0 STARLINK-3130,1 49437U 21104AF  22338.50015093  .00001268  00000-0  97777-4 0  9994,2 49437  53.2157 156.5887 0003215  47.4777 312.6486 15.08840915 59082,6917.878000000002,95.437,541.967,537.518,0.0
49437.0,STARLINK-3130,PAYLOAD,2022-12-04 18:21:45,15.08842997,0.000323,53.2157,155.3993,48.0416,312.0851,0.00010783,1.428e-05,0.0,0 STARLINK-3130,1 49437U 21104AF  22338.76510912  .00001428  00000-0  10783-3 0  9991,2 49437  53.2157 155.3993 0003230  48.0416 312.0851 15.08842997 60197,6917.871,95.437,541.971,537.502,0.0
49437.0,STARLINK-3130,PAYLOAD,2022-12-04 23:07:54,15.08846522,0.0003251,53.2161,154.5074,48.1113,312.0156,0.00011256,1.504e-05,0.0,0 STARLINK-3130,1 49437U 21104AF  22338.96382683  .00001504  00000-0  11256-3 0  9996,2 49437  53.2161 154.5074 0003251  48.1113 312.0156 15.08846522 59151,6917.86,95.437,541.974,537.476,0.0
49437.0,STARLINK-3130,PAYLOAD,2022-12-05 18:12:32,15.08841949,0.000322,53.217,150.9396,47.7971,312.3294,2.8361e-05,1.63e-06,0.0,0 STARLINK-3130,1 49437U 21104AF  22339.75871052  .00000163  00000-0  28361-4 0  9993,2 49437  53.2170 150.9396 0003220  47.7971 312.3294 15.08841949 59278,6917.874,95.437,541.967,537.512,0.0
49437.0,STARLINK-3130,PAYLOAD,2022-12-05 22:58:42,15.08839909,0.0003219,53.2167,150.0471,48.1795,311.9472,7.4215999999999985e-06,-1.71e-06,0.0,0 STARLINK-3130,1 49437U 21104AF  22339.95743195 -.00000171  00000-0  74216-5 0  9992,2 49437  53.2167 150.0471 0003219  48.1795 311.9472 15.08839909 60375,6917.880999999999,95.438,541.9730000000002,537.519,0.0
49437.0,STARLINK-3130,PAYLOAD,2022-12-06 11:41:47,15.08842483,0.0003261,53.2166,147.668,49.8145,310.3132,4.469e-06,-2.18e-06,0.0,0 STARLINK-3130,1 49437U 21104AF  22340.48735056 -.00000218  00000-0  44690-5 0  9994,2 49437  53.2166 147.6680 0003261  49.8145 310.3132 15.08842483 59388,6917.873000000001,95.437,541.994,537.482,0.0
49437.0,STARLINK-3130,PAYLOAD,2022-12-06 18:03:19,15.08844804,0.0003253999999999,53.2165,146.4786,50.3497,309.7782,2.4414e-05,1e-06,0.0,0 STARLINK-3130,1 49437U 21104AF  22340.75230766  .00000100  00000-0  24414-4 0  9992,2 49437  53.2165 146.4786 0003254  50.3497 309.7782 15.08844804 59427,6917.866,95.437,541.982,537.48,0.0
49437.0,STARLINK-3130,PAYLOAD,2022-12-07 11:32:34,15.08834393,0.0003058,53.2161,143.2072,52.5893,307.5377,3.2651e-05,2.31e-06,0.0,0 STARLINK-3130,1 49437U 21104AF  22341.48095313  .00000231  00000-0  32651-4 0  9997,2 49437  53.2161 143.2072 0003058  52.5893 307.5377 15.08834393 60602,6917.898,95.438,541.878,537.6469999999998,0.0
49437.0,STARLINK-3130,PAYLOAD,2022-12-07 17:54:07,15.08832247,0.0003087,53.2167,142.0176,45.4391,314.6852,1.3660999999999997e-05,-7.1e-07,0.0,0 STARLINK-3130,1 49437U 21104AF  22341.74591584 -.00000071  00000-0  13661-4 0  9990,2 49437  53.2167 142.0176 0003087  45.4391 314.6852 15.08832247 59573,6917.904,95.438,541.905,537.634,0.0
49437.0,STARLINK-3130,PAYLOAD,2022-12-08 11:23:21,15.08842061,0.0003168999999999,53.2167,138.7464,51.6418,308.4859,8.1711e-05,1.012e-05,0.0,0 STARLINK-3130,1 49437U 21104AF  22342.47454886  .00001012  00000-0  81711-4 0  9990,2 49437  53.2167 138.7464 0003169  51.6418 308.4859 15.08842061 59680,6917.874,95.437,541.931,537.547,0.0
49437.0,STARLINK-3130,PAYLOAD,2022-12-08 17:44:54,15.08844642,0.0002633,53.2179,137.5613,48.4123,311.7095,-0.00034636,-5.798e-05,0.0,0 STARLINK-3130,1 49437U 21104AF  22342.73951836 -.00005798  00000-0 -34636-3 0  9996,2 49437  53.2179 137.5613 0002633  48.4123 311.7095 15.08844642 60798,6917.866,95.437,541.553,537.91,0.0
49437.0,STARLINK-3130,PAYLOAD,2022-12-09 03:17:01,15.08976601,0.0001676999999999,53.2177,135.776,351.6077,8.4887,0.0013302,0.00021025,0.0,0 STARLINK-3130,1 49437U 21104AF  22343.13682708  .00021025  00000-0  13302-2 0  9995,2 49437  53.2177 135.7760 0001677 351.6077   8.4887 15.08976601 59780,6917.4630000000025,95.429,540.488,538.168,0.0
49437.0,STARLINK-3130,PAYLOAD,2022-12-10 06:18:45,15.08871181,0.0001819,53.2175,130.7199,8.7726,351.3297,-0.00054076,-8.892e-05,0.0,0 STARLINK-3130,1 49437U 21104AF  22344.26302551 -.00008892  00000-0 -54076-3 0  9998,2 49437  53.2175 130.7199 0001819   8.7726 351.3297 15.08871181 61020,6917.785,95.436,540.908,538.3919999999998,0.0
49437.0,STARLINK-3130,PAYLOAD,2022-12-10 14:15:41,15.08835127,0.0001695,53.2175,129.2323,31.3335,328.7758,4.9577e-05,5.01e-06,0.0,0 STARLINK-3130,1 49437U 21104AF  22344.59423236  .00000501  00000-0  49577-4 0  9996,2 49437  53.2175 129.2323 0001695  31.3335 328.7758 15.08835127 61077,6917.895,95.438,540.933,538.5880000000002,0.0
49437.0,STARLINK-3130,PAYLOAD,2022-12-10 17:26:28,15.08839768,0.0003037,53.2169,128.6371,48.1649,311.9602,3.8022e-05,3.17e-06,0.0,0 STARLINK-3130,1 49437U 21104AF  22344.72671524  .00000317  00000-0  38022-4 0  9994,2 49437  53.2169 128.6371 0003037  48.1649 311.9602 15.08839768 60023,6917.880999999999,95.438,541.847,537.645,0.0
49437.0,STARLINK-3130,PAYLOAD,2022-12-11 04:34:08,15.08862001,0.0002911,53.2165,126.555,359.3731,0.7257,-0.00012854,-2.335e-05,0.0,0 STARLINK-3130,1 49437U 21104AF  22345.19037973 -.00002335  00000-0 -12854-3 0  9998,2 49437  53.2165 126.5550 0002911 359.3731   0.7257 15.08862001 61165,6917.813,95.436,541.692,537.664,0.0
49437.0,STARLINK-3130,PAYLOAD,2022-12-11 12:31:05,15.08839599,0.0002291,53.2167,125.0681,41.3478,318.7687,0.00017565,2.508e-05,0.0,0 STARLINK-3130,1 49437U 21104AF  22345.52159182  .00002508  00000-0  17565-3 0  9996,2 49437  53.2167 125.0681 0002291  41.3478 318.7687 15.08839599 61214,6917.882,95.438,541.332,538.1619999999998,0.0
